COSMOS 2361             
1 25590U 98076A   26062.13260028  .00000085  00000+0  75508-4 0  9990
2 25590  82.9314 284.6408 0032404  43.8998  73.2940 13.73226729362149
COSMOS 2378             
1 26818U 01023A   26062.13703384  .00000088  00000+0  77787-4 0  9991
2 26818  82.9263 300.1268 0032722 345.5090 133.2901 13.74150394240270
COSMOS 2389             
1 27436U 02026A   26062.03649106  .00000067  00000+0  53390-4 0  9993
2 27436  82.9465 247.5415 0046011 194.3409 286.7354 13.75163694192527
COSMOS 2398             
1 27818U 03023A   26061.91559382  .00000055  00000+0  43746-4 0  9998
2 27818  82.9481 213.6090 0030197 249.2422 228.1666 13.72394664139162
COSMOS 2407             
1 28380U 04028A   26062.21095993  .00000072  00000+0  58242-4 0  9992
2 28380  82.9639 153.3212 0039236 186.7803 201.3033 13.76324115 85304
COSMOS 2414             
1 28521U 05002A   26062.12986900  .00000102  00000+0  72840-4 0  9993
2 28521  82.9494 123.8803 0038664 271.7543  87.9192 13.87914338 69106
COSMOS 2429             
1 32052U 07038A   26062.12039958  .00000082  00000+0  69336-4 0  9993
2 32052  82.9778 284.0656 0038531 169.7472 190.4479 13.75157538927076
COSMOS 2454             
1 35635U 09039A   26062.15779691  .00000093  00000+0  62883-4 0  9996
2 35635  82.9536 107.6871 0018753 198.3634 216.7280 13.89940347842676
COSMOS 2463             
1 36519U 10017A   26062.13770495  .00000071  00000+0  61473-4 0  9997
2 36519  82.9641 327.6438 0037417  65.1521  45.3967 13.71657208793396
