[{"OBJECT_NAME":"COSMOS 2361","OBJECT_ID":"1998-076A","EPOCH":"2026-03-03T03:10:56.664192","MEAN_MOTION":13.73226729,"ECCENTRICITY":0.0032404,"INCLINATION":82.9314,"RA_OF_ASC_NODE":284.6408,"ARG_OF_PERICENTER":43.8998,"MEAN_ANOMALY":73.294,"EPHEMERIS_TYPE":0,"CLASSIFICATION_TYPE":"U","NORAD_CAT_ID":25590,"ELEMENT_SET_NO":999,"REV_AT_EPOCH":36214,"BSTAR":7.5508e-5,"MEAN_MOTION_DOT":8.5e-7,"MEAN_MOTION_DDOT":0},{"OBJECT_NAME":"COSMOS 2378","OBJECT_ID":"2001-023A","EPOCH":"2026-03-03T03:17:19.723776","MEAN_MOTION":13.74150394,"ECCENTRICITY":0.0032722,"INCLINATION":82.9263,"RA_OF_ASC_NODE":300.1268,"ARG_OF_PERICENTER":345.509,"MEAN_ANOMALY":133.2901,"EPHEMERIS_TYPE":0,"CLASSIFICATION_TYPE":"U","NORAD_CAT_ID":26818,"ELEMENT_SET_NO":999,"REV_AT_EPOCH":24027,"BSTAR":7.7787e-5,"MEAN_MOTION_DOT":8.8e-7,"MEAN_MOTION_DDOT":0},{"OBJECT_NAME":"COSMOS 2389","OBJECT_ID":"2002-026A","EPOCH":"2026-03-03T00:52:32.827584","MEAN_MOTION":13.75163694,"ECCENTRICITY":0.0046011,"INCLINATION":82.9465,"RA_OF_ASC_NODE":247.5415,"ARG_OF_PERICENTER":194.3409,"MEAN_ANOMALY":286.7354,"EPHEMERIS_TYPE":0,"CLASSIFICATION_TYPE":"U","NORAD_CAT_ID":27436,"ELEMENT_SET_NO":999,"REV_AT_EPOCH":19252,"BSTAR":5.339e-5,"MEAN_MOTION_DOT":6.7e-7,"MEAN_MOTION_DDOT":0},{"OBJECT_NAME":"COSMOS 2398","OBJECT_ID":"2003-023A","EPOCH":"2026-03-02T21:58:27.306048","MEAN_MOTION":13.72394664,"ECCENTRICITY":0.0030197,"INCLINATION":82.9481,"RA_OF_ASC_NODE":213.609,"ARG_OF_PERICENTER":249.2422,"MEAN_ANOMALY":228.1666,"EPHEMERIS_TYPE":0,"CLASSIFICATION_TYPE":"U","NORAD_CAT_ID":27818,"ELEMENT_SET_NO":999,"REV_AT_EPOCH":13916,"BSTAR":4.3746e-5,"MEAN_MOTION_DOT":5.5e-7,"MEAN_MOTION_DDOT":0},{"OBJECT_NAME":"COSMOS 2407","OBJECT_ID":"2004-028A","EPOCH":"2026-03-03T05:03:46.937952","MEAN_MOTION":13.76324115,"ECCENTRICITY":0.0039236,"INCLINATION":82.9639,"RA_OF_ASC_NODE":153.3212,"ARG_OF_PERICENTER":186.7803,"MEAN_ANOMALY":201.3033,"EPHEMERIS_TYPE":0,"CLASSIFICATION_TYPE":"U","NORAD_CAT_ID":28380,"ELEMENT_SET_NO":999,"REV_AT_EPOCH":8530,"BSTAR":5.8242e-5,"MEAN_MOTION_DOT":7.2e-7,"MEAN_MOTION_DDOT":0},{"OBJECT_NAME":"COSMOS 2414","OBJECT_ID":"2005-002A","EPOCH":"2026-03-03T03:07:00.681600","MEAN_MOTION":13.87914338,"ECCENTRICITY":0.0038664,"INCLINATION":82.9494,"RA_OF_ASC_NODE":123.8803,"ARG_OF_PERICENTER":271.7543,"MEAN_ANOMALY":87.9192,"EPHEMERIS_TYPE":0,"CLASSIFICATION_TYPE":"U","NORAD_CAT_ID":28521,"ELEMENT_SET_NO":999,"REV_AT_EPOCH":6910,"BSTAR":7.284e-5,"MEAN_MOTION_DOT":1.02e-6,"MEAN_MOTION_DDOT":0},{"OBJECT_NAME":"COSMOS 2429","OBJECT_ID":"2007-038A","EPOCH":"2026-03-03T02:53:22.523712","MEAN_MOTION":13.75157538,"ECCENTRICITY":0.0038531,"INCLINATION":82.9778,"RA_OF_ASC_NODE":284.0656,"ARG_OF_PERICENTER":169.7472,"MEAN_ANOMALY":190.4479,"EPHEMERIS_TYPE":0,"CLASSIFICATION_TYPE":"U","NORAD_CAT_ID":32052,"ELEMENT_SET_NO":999,"REV_AT_EPOCH":92707,"BSTAR":6.9336e-5,"MEAN_MOTION_DOT":8.2e-7,"MEAN_MOTION_DDOT":0},{"OBJECT_NAME":"COSMOS 2454","OBJECT_ID":"2009-039A","EPOCH":"2026-03-03T03:47:13.653024","MEAN_MOTION":13.89940347,"ECCENTRICITY":0.0018753,"INCLINATION":82.9536,"RA_OF_ASC_NODE":107.6871,"ARG_OF_PERICENTER":198.3634,"MEAN_ANOMALY":216.728,"EPHEMERIS_TYPE":0,"CLASSIFICATION_TYPE":"U","NORAD_CAT_ID":35635,"ELEMENT_SET_NO":999,"REV_AT_EPOCH":84267,"BSTAR":6.2883e-5,"MEAN_MOTION_DOT":9.3e-7,"MEAN_MOTION_DDOT":0},{"OBJECT_NAME":"COSMOS 2463","OBJECT_ID":"2010-017A","EPOCH":"2026-03-03T03:18:17.707680","MEAN_MOTION":13.71657208,"ECCENTRICITY":0.0037417,"INCLINATION":82.9641,"RA_OF_ASC_NODE":327.6438,"ARG_OF_PERICENTER":65.1521,"MEAN_ANOMALY":45.3967,"EPHEMERIS_TYPE":0,"CLASSIFICATION_TYPE":"U","NORAD_CAT_ID":36519,"ELEMENT_SET_NO":999,"REV_AT_EPOCH":79339,"BSTAR":6.1473e-5,"MEAN_MOTION_DOT":7.1e-7,"MEAN_MOTION_DDOT":0}]
